OBJECT_NAME,OBJECT_ID,EPOCH,MEAN_MOTION,ECCENTRICITY,INCLINATION,RA_OF_ASC_NODE,ARG_OF_PERICENTER,MEAN_ANOMALY,EPHEMERIS_TYPE,CLASSIFICATION_TYPE,NORAD_CAT_ID,ELEMENT_SET_NO,REV_AT_EPOCH,BSTAR,MEAN_MOTION_DOT,MEAN_MOTION_DDOT
STARLINK-33885,2025-094Y,2026-06-17T19:28:32.545920,14.98333460,.00027782,70.0017,341.8847,255.6829,104.4022,0,U,63886,999,6220,.206681E-3,.2374E-4,0
STARLINK-33904,2025-094Z,2026-06-17T22:35:04.018272,14.98332351,.00021346,70.0025,341.5320,255.8257,104.2665,0,U,63887,999,6222,.46730156E-3,.5487E-4,0
STARLINK-33981,2025-094AA,2026-06-17T20:16:51.927744,14.98334519,.00024262,70.0018,342.0007,269.9130,90.1751,0,U,63888,999,6220,.18130403E-3,.2071E-4,0
STARLINK-33738,2025-094AB,2026-06-17T19:58:49.848096,14.98339285,.0002802,70.0020,341.9327,268.4828,91.6010,0,U,63889,999,6242,.35340974E-3,.4127E-4,0
STARLINK-34116,2025-095A,2026-06-17T04:37:55.817760,15.27613689,.00034317,43.0091,334.4468,278.4573,81.5890,0,U,63890,999,6300,.64031645E-3,.17419E-3,0
STARLINK-34123,2025-095B,2026-06-16T17:59:12.231168,15.27593080,.00018002,43.0089,337.1440,275.7440,84.3207,0,U,63891,999,6293,.49366836E-3,.13352E-3,0
STARLINK-33972,2025-095D,2026-06-17T12:17:37.286304,15.27590293,.00005439,43.0000,332.5375,261.5236,98.5554,0,U,63893,999,6305,.44102007E-3,.11897E-3,0
STARLINK-33973,2025-095E,2026-06-17T03:35:01.470912,15.27600706,.00022075,42.9995,334.1114,277.9668,82.0933,0,U,63894,999,6300,.73915985E-3,.20147E-3,0
STARLINK-34119,2025-095F,2026-06-17T22:02:54.395232,15.27607598,.00028323,43.0038,330.4303,280.2615,79.7917,0,U,63895,999,6311,.77207737E-3,.21063E-3,0
STARLINK-34143,2025-095G,2026-06-17T04:10:11.377056,15.27594667,.00008973,43.0033,334.2956,278.1358,81.9392,0,U,63896,999,6300,.62205956E-3,.16902E-3,0
STARLINK-33957,2025-095H,2026-06-16T17:53:39.065856,15.27592471,.00024634,43.0010,337.1062,269.4550,90.6019,0,U,63897,999,6292,.49178776E-3,.13301E-3,0
STARLINK-34120,2025-095J,2026-06-17T03:29:28.205376,15.27603258,.00022243,43.0035,334.0823,269.0447,91.0149,0,U,63898,999,6300,.79717078E-3,.21755E-3,0
STARLINK-34134,2025-095K,2026-06-17T04:32:23.584704,15.27597678,.00016358,43.0089,334.4134,269.6988,90.3676,0,U,63899,999,6300,.62447016E-3,.16971E-3,0
STARLINK-34118,2025-095L,2026-06-16T17:42:32.781888,15.27596819,.00014691,43.0002,337.0448,261.6197,98.4488,0,U,63900,999,6293,.5011082E-3,.1356E-3,0
STARLINK-34125,2025-095M,2026-06-17T12:12:04.888224,15.27598263,.00006647,42.9982,332.5075,81.6470,278.4456,0,U,63901,999,6304,.50143861E-3,.1357E-3,0
STARLINK-33955,2025-095N,2026-06-17T03:38:43.344384,15.27601209,.00022247,43.0047,334.1287,276.6462,83.4136,0,U,63902,999,6299,.68044625E-3,.18522E-3,0
STARLINK-34097,2025-095P,2026-06-17T04:06:28.999008,15.27593040,.00014125,43.0054,334.2736,275.0944,84.9746,0,U,63903,999,6299,.86092936E-3,.23514E-3,0
STARLINK-34092,2025-095Q,2026-06-16T17:49:56.921952,15.27593637,.00013343,42.9981,337.0830,255.3045,104.7659,0,U,63904,999,6292,.54839943E-3,.14865E-3,0
STARLINK-34114,2025-095R,2026-06-16T18:01:03.433152,15.27585821,.00022133,43.0048,337.1471,273.4640,86.5958,0,U,63905,999,6292,.50493947E-3,.13661E-3,0
STARLINK-33770,2025-095S,2026-06-17T21:07:23.952576,15.27589410,.00018647,43.0046,330.1329,272.5859,87.4779,0,U,63906,999,6310,.86744062E-3,.23692E-3,0
STARLINK-34106,2025-095T,2026-06-17T19:27:43.083648,15.27567780,.00028608,43.0061,330.4710,304.1523,55.9057,0,U,63907,999,6309,.34309915E-3,.9188E-4,0
STARLINK-34083,2025-095U,2026-06-16T17:55:30.063936,15.27593562,.00034308,43.0037,337.1158,275.4005,84.6455,0,U,63908,999,6292,.48227372E-3,.13039E-3,0
STARLINK-34066,2025-095V,2026-06-17T16:00:01.999584,15.27578351,.00014932,43.0034,331.7339,274.9233,187.1956,0,U,63909,999,570,-.44994358E-3,-.12622E-3,0
STARLINK-34071,2025-095W,2026-06-16T17:44:23.729856,15.27594707,.00006289,43.0009,337.0525,238.2512,121.8279,0,U,63910,999,6292,.49897129E-3,.135E-3,0
STARLINK-34038,2025-095X,2026-06-17T12:13:55.672032,15.27596230,.00006736,42.9988,332.5164,84.9699,275.1229,0,U,63911,999,6304,.52367307E-3,.14183E-3,0
STARLINK-34031,2025-095Y,2026-06-17T12:19:28.086528,15.27582237,.00012434,43.0002,332.5433,265.0437,95.0272,0,U,63912,999,6304,.43850763E-3,.11825E-3,0
STARLINK-34070,2025-095Z,2026-06-17T04:17:34.971072,15.27585541,.00029028,43.0058,334.3314,268.2567,91.7952,0,U,63913,999,6299,.64621728E-3,.17567E-3,0
STARLINK-34068,2025-095AA,2026-06-17T04:02:46.392864,15.27606966,.00025597,42.9962,334.2518,269.3512,90.7046,0,U,63914,999,6299,.76479166E-3,.20861E-3,0
STARLINK-34076,2025-095AB,2026-06-17T08:00:01.000224,15.27559393,.00014455,43.0032,333.4058,268.7235,243.0216,0,U,63915,999,567,.96518744E-3,.26376E-3,0
STARLINK-33910,2025-095AC,2026-06-17T03:40:34.738176,15.27572340,.00016255,43.0018,334.1347,285.7733,74.2939,0,U,63916,999,6299,.78091961E-3,.21284E-3,0
