[
  {
    "name": "STARLINK-33885",
    "noradId": "63886",
    "line1": "1 63886U 25094Y   26168.81148780  .00002374  00000+0  20668-3 0  9991",
    "line2": "2 63886  70.0017 341.8847 0002778 255.6829 104.4022 14.98333460 62208"
  },
  {
    "name": "STARLINK-33904",
    "noradId": "63887",
    "line1": "1 63887U 25094Z   26168.94101873  .00005487  00000+0  46730-3 0  9994",
    "line2": "2 63887  70.0025 341.5320 0002134 255.8257 104.2665 14.98332351 62225"
  },
  {
    "name": "STARLINK-33981",
    "noradId": "63888",
    "line1": "1 63888U 25094AA  26168.84504546  .00002071  00000+0  18130-3 0  9997",
    "line2": "2 63888  70.0018 342.0007 0002426 269.9130  90.1751 14.98334519 62201"
  },
  {
    "name": "STARLINK-33738",
    "noradId": "63889",
    "line1": "1 63889U 25094AB  26168.83252139  .00004127  00000+0  35341-3 0  9992",
    "line2": "2 63889  70.0020 341.9327 0002802 268.4828  91.6010 14.98339285 62427"
  },
  {
    "name": "STARLINK-34116",
    "noradId": "63890",
    "line1": "1 63890U 25095A   26168.19300715  .00017419  00000+0  64032-3 0  9995",
    "line2": "2 63890  43.0091 334.4468 0003431 278.4573  81.5890 15.27613689 63002"
  },
  {
    "name": "STARLINK-34123",
    "noradId": "63891",
    "line1": "1 63891U 25095B   26167.74944712  .00013352  00000+0  49367-3 0  9993",
    "line2": "2 63891  43.0089 337.1440 0001800 275.7440  84.3207 15.27593080 62937"
  },
  {
    "name": "STARLINK-33972",
    "noradId": "63893",
    "line1": "1 63893U 25095D   26168.51223711  .00011897  00000+0  44102-3 0  9994",
    "line2": "2 63893  43.0000 332.5375 0000543 261.5236  98.5554 15.27590293 63056"
  },
  {
    "name": "STARLINK-33973",
    "noradId": "63894",
    "line1": "1 63894U 25095E   26168.14932258  .00020147  00000+0  73916-3 0  9990",
    "line2": "2 63894  42.9995 334.1114 0002207 277.9668  82.0933 15.27600706 63001"
  },
  {
    "name": "STARLINK-34119",
    "noradId": "63895",
    "line1": "1 63895U 25095F   26168.91868513  .00021063  00000+0  77208-3 0  9994",
    "line2": "2 63895  43.0038 330.4303 0002832 280.2615  79.7917 15.27607598 63117"
  },
  {
    "name": "STARLINK-34143",
    "noradId": "63896",
    "line1": "1 63896U 25095G   26168.17374279  .00016902  00000+0  62206-3 0  9992",
    "line2": "2 63896  43.0033 334.2956 0000897 278.1358  81.9392 15.27594667 63000"
  },
  {
    "name": "STARLINK-33957",
    "noradId": "63897",
    "line1": "1 63897U 25095H   26167.74559104  .00013301  00000+0  49179-3 0  9991",
    "line2": "2 63897  43.0010 337.1062 0002463 269.4550  90.6019 15.27592471 62928"
  },
  {
    "name": "STARLINK-34120",
    "noradId": "63898",
    "line1": "1 63898U 25095J   26168.14546534  .00021755  00000+0  79717-3 0  9993",
    "line2": "2 63898  43.0035 334.0823 0002224 269.0447  91.0149 15.27603258 63008"
  },
  {
    "name": "STARLINK-34134",
    "noradId": "63899",
    "line1": "1 63899U 25095K   26168.18916186  .00016971  00000+0  62447-3 0  9998",
    "line2": "2 63899  43.0089 334.4134 0001635 269.6988  90.3676 15.27597678 63003"
  },
  {
    "name": "STARLINK-34118",
    "noradId": "63900",
    "line1": "1 63900U 25095L   26167.73787942  .00013560  00000+0  50111-3 0  9993",
    "line2": "2 63900  43.0002 337.0448 0001469 261.6197  98.4488 15.27596819 62934"
  },
  {
    "name": "STARLINK-34125",
    "noradId": "63901",
    "line1": "1 63901U 25095M   26168.50838991  .00013570  00000+0  50144-3 0  9998",
    "line2": "2 63901  42.9982 332.5075 0000664  81.6470 278.4456 15.27598263 63049"
  },
  {
    "name": "STARLINK-33955",
    "noradId": "63902",
    "line1": "1 63902U 25095N   26168.15189056  .00018522  00000+0  68045-3 0  9992",
    "line2": "2 63902  43.0047 334.1287 0002224 276.6462  83.4136 15.27601209 62995"
  },
  {
    "name": "STARLINK-34097",
    "noradId": "63903",
    "line1": "1 63903U 25095P   26168.17116897  .00023514  00000+0  86093-3 0  9998",
    "line2": "2 63903  43.0054 334.2736 0001412 275.0944  84.9746 15.27593040 62996"
  },
  {
    "name": "STARLINK-34092",
    "noradId": "63904",
    "line1": "1 63904U 25095Q   26167.74301993  .00014865  00000+0  54840-3 0  9998",
    "line2": "2 63904  42.9981 337.0830 0001334 255.3045 104.7659 15.27593637 62925"
  },
  {
    "name": "STARLINK-34114",
    "noradId": "63905",
    "line1": "1 63905U 25095R   26167.75073418  .00013661  00000+0  50494-3 0  9992",
    "line2": "2 63905  43.0048 337.1471 0002213 273.4640  86.5958 15.27585821 62928"
  },
  {
    "name": "STARLINK-33770",
    "noradId": "63906",
    "line1": "1 63906U 25095S   26168.88013834  .00023692  00000+0  86744-3 0  9996",
    "line2": "2 63906  43.0046 330.1329 0001864 272.5859  87.4779 15.27589410 63105"
  },
  {
    "name": "STARLINK-34106",
    "noradId": "63907",
    "line1": "1 63907U 25095T   26168.81091532  .00009188  00000+0  34310-3 0  9997",
    "line2": "2 63907  43.0061 330.4710 0002860 304.1523  55.9057 15.27567780 63090"
  },
  {
    "name": "STARLINK-34083",
    "noradId": "63908",
    "line1": "1 63908U 25095U   26167.74687574  .00013039  00000+0  48227-3 0  9998",
    "line2": "2 63908  43.0037 337.1158 0003430 275.4005  84.6455 15.27593562 62922"
  },
  {
    "name": "STARLINK-34066",
    "noradId": "63909",
    "line1": "1 63909U 25095V   26168.66668981 -.00012622  00000+0 -44994-3 0  9998",
    "line2": "2 63909  43.0034 331.7339 0001493 274.9233 187.1956 15.27578351  5702"
  },
  {
    "name": "STARLINK-34071",
    "noradId": "63910",
    "line1": "1 63910U 25095W   26167.73916354  .00013500  00000+0  49897-3 0  9998",
    "line2": "2 63910  43.0009 337.0525 0000628 238.2512 121.8279 15.27594707 62927"
  },
  {
    "name": "STARLINK-34038",
    "noradId": "63911",
    "line1": "1 63911U 25095X   26168.50967213  .00014183  00000+0  52367-3 0  9999",
    "line2": "2 63911  42.9988 332.5164 0000673  84.9699 275.1229 15.27596230 63048"
  },
  {
    "name": "STARLINK-34031",
    "noradId": "63912",
    "line1": "1 63912U 25095Y   26168.51351952  .00011825  00000+0  43851-3 0  9996",
    "line2": "2 63912  43.0002 332.5433 0001243 265.0437  95.0272 15.27582237 63042"
  },
  {
    "name": "STARLINK-34070",
    "noradId": "63913",
    "line1": "1 63913U 25095Z   26168.17887698  .00017567  00000+0  64622-3 0  9998",
    "line2": "2 63913  43.0058 334.3314 0002902 268.2567  91.7952 15.27585541 62996"
  },
  {
    "name": "STARLINK-34068",
    "noradId": "63914",
    "line1": "1 63914U 25095AA  26168.16859251  .00020861  00000+0  76479-3 0  9996",
    "line2": "2 63914  42.9962 334.2518 0002559 269.3512  90.7046 15.27606966 62992"
  },
  {
    "name": "STARLINK-34076",
    "noradId": "63915",
    "line1": "1 63915U 25095AB  26168.33334491  .00026376  00000+0  96519-3 0  9994",
    "line2": "2 63915  43.0032 333.4058 0001445 268.7235 243.0216 15.27559393  5676"
  },
  {
    "name": "STARLINK-33910",
    "noradId": "63916",
    "line1": "1 63916U 25095AC  26168.15317984  .00021284  00000+0  78092-3 0  9992",
    "line2": "2 63916  43.0018 334.1347 0001625 285.7733  74.2939 15.27572340 62993"
  }
]